[{"OBJECT_NAME":"STARLINK-30700","OBJECT_ID":"2023-148U","EPOCH":"2026-03-09T23:34:44.787648","MEAN_MOTION":15.30185681,"ECCENTRICITY":0.00011054,"INCLINATION":53.1614,"RA_OF_ASC_NODE":12.8508,"ARG_OF_PERICENTER":66.1024,"MEAN_ANOMALY":294.0093,"EPHEMERIS_TYPE":0,"CLASSIFICATION_TYPE":"U","NORAD_CAT_ID":57953,"ELEMENT_SET_NO":999,"REV_AT_EPOCH":13860,"BSTAR":2.4725291e-5,"MEAN_MOTION_DOT":3.73e-6,"MEAN_MOTION_DDOT":0},{"OBJECT_NAME":"LYNK TOWER 6","OBJECT_ID":"2024-043AB","EPOCH":"2026-03-09T21:28:38.303328","MEAN_MOTION":15.29548678,"ECCENTRICITY":0.00097492,"INCLINATION":97.5426,"RA_OF_ASC_NODE":204.1954,"ARG_OF_PERICENTER":232.0253,"MEAN_ANOMALY":128.0107,"EPHEMERIS_TYPE":0,"CLASSIFICATION_TYPE":"U","NORAD_CAT_ID":59123,"ELEMENT_SET_NO":999,"REV_AT_EPOCH":11184,"BSTAR":0.00040142146,"MEAN_MOTION_DOT":0.0001144,"MEAN_MOTION_DDOT":0}]
